start=new Date('2023-01-27T00:00:00.000Z').valueOf();
sats=[{"ELEMENT_SET_NO":"999","PERIOD":"95.592","ARG_OF_PERICENTER":"94.7542","MEAN_ANOMALY":"265.3651","INCLINATION":"53.0554","FILE":"3762284","TLE_LINE2":"2 44972  53.0554  13.9800 0001781  94.7542 265.3651 15.06395705168935","REF_FRAME":"TEME","ECCENTRICITY":"0.00017810","NORAD_CAT_ID":"44972","LAUNCH_DATE":"2020-01-07","SITE":"AFETR","MEAN_MOTION_DDOT":"0.0000000000000","OBJECT_ID":"2020-001BL","CENTER_NAME":"EARTH","EPOCH":"2023-01-26T23:37:41.114496","CLASSIFICATION_TYPE":"U","COUNTRY_CODE":"US","OBJECT_NAME":"STARLINK-1107","OBJECT_TYPE":"PAYLOAD","MEAN_MOTION":"15.06395705","REV_AT_EPOCH":"16893","SEMIMAJOR_AXIS":"6925.362","EPHEMERIS_TYPE":"0","GP_ID":"223768254","RCS_SIZE":"LARGE","MEAN_ELEMENT_THEORY":"SGP4","MEAN_MOTION_DOT":"0.00001017","APOAPSIS":"548.460","TIME_SYSTEM":"UTC","TLE_LINE1":"1 44972U 20001BL  23026.98450364  .00001017  00000-0  87179-4 0  9996","RA_OF_ASC_NODE":"13.9800","DECAY_DATE":null,"PERIAPSIS":"545.993","BSTAR":"0.00008717900000"},{"TLE_LINE1":"1 44973U 20001BM  23026.03354127  .00001729  00000-0  13499-3 0  9996","TIME_SYSTEM":"UTC","APOAPSIS":"548.376","BSTAR":"0.00013499000000","DECAY_DATE":null,"PERIAPSIS":"546.072","RA_OF_ASC_NODE":"18.2450","GP_ID":"223754107","RCS_SIZE":"LARGE","EPHEMERIS_TYPE":"0","MEAN_MOTION_DOT":"0.00001729","MEAN_ELEMENT_THEORY":"SGP4","MEAN_MOTION":"15.06396654","SEMIMAJOR_AXIS":"6925.359","REV_AT_EPOCH":"16878","COUNTRY_CODE":"US","CLASSIFICATION_TYPE":"U","OBJECT_TYPE":"PAYLOAD","OBJECT_NAME":"STARLINK-1115","SITE":"AFETR","EPOCH":"2023-01-26T00:48:17.965728","CENTER_NAME":"EARTH","MEAN_MOTION_DDOT":"0.0000000000000","OBJECT_ID":"2020-001BM","LAUNCH_DATE":"2020-01-07","NORAD_CAT_ID":"44973","MEAN_ANOMALY":"271.0346","PERIOD":"95.592","ARG_OF_PERICENTER":"89.0833","ECCENTRICITY":"0.00016630","TLE_LINE2":"2 44973  53.0567  18.2450 0001663  89.0833 271.0346 15.06396654168780","REF_FRAME":"TEME","FILE":"3761951","INCLINATION":"53.0567","ELEMENT_SET_NO":"999"},{"COUNTRY_CODE":"US","CLASSIFICATION_TYPE":"U","OBJECT_TYPE":"PAYLOAD","OBJECT_NAME":"STARLINK-1132","MEAN_MOTION":"15.06413918","SEMIMAJOR_AXIS":"6925.306","REV_AT_EPOCH":"16513","RCS_SIZE":"LARGE","GP_ID":"223752612","EPHEMERIS_TYPE":"0","MEAN_MOTION_DOT":"0.00015220","MEAN_ELEMENT_THEORY":"SGP4","TLE_LINE1":"1 45044U 20006A   23026.14042906  .00015220  00000-0  10381-2 0  9999","TIME_SYSTEM":"UTC","APOAPSIS":"548.052","BSTAR":"0.00103810000000","RA_OF_ASC_NODE":"337.7615","DECAY_DATE":null,"PERIAPSIS":"546.289","ELEMENT_SET_NO":"999","MEAN_ANOMALY":"275.3394","PERIOD":"95.591","ARG_OF_PERICENTER":"84.7740","ECCENTRICITY":"0.00012730","TLE_LINE2":"2 45044  53.0552 337.7615 0001273  84.7740 275.3394 15.06413918165131","REF_FRAME":"TEME","INCLINATION":"53.0552","FILE":"3761951","LAUNCH_DATE":"2020-01-29","NORAD_CAT_ID":"45044","SITE":"AFETR","EPOCH":"2023-01-26T03:22:13.070784","CENTER_NAME":"EARTH","OBJECT_ID":"2020-006A","MEAN_MOTION_DDOT":"0.0000000000000"},{"MEAN_ELEMENT_THEORY":"SGP4","MEAN_MOTION_DOT":"0.00006101","EPHEMERIS_TYPE":"0","GP_ID":"223752862","RCS_SIZE":"LARGE","RA_OF_ASC_NODE":"356.9284","DECAY_DATE":null,"PERIAPSIS":"545.997","BSTAR":"0.00042807000000","APOAPSIS":"548.396","TIME_SYSTEM":"UTC","TLE_LINE1":"1 45045U 20006B   23026.32562456  .00006101  00000-0  42807-3 0  9994","OBJECT_NAME":"STARLINK-1120","OBJECT_TYPE":"PAYLOAD","CLASSIFICATION_TYPE":"U","COUNTRY_CODE":"US","REV_AT_EPOCH":"16488","SEMIMAJOR_AXIS":"6925.332","MEAN_MOTION":"15.06405535","NORAD_CAT_ID":"45045","LAUNCH_DATE":"2020-01-29","MEAN_MOTION_DDOT":"0.0000000000000","OBJECT_ID":"2020-006B","CENTER_NAME":"EARTH","EPOCH":"2023-01-26T07:48:53.961984","SITE":"AFETR","ELEMENT_SET_NO":"999","FILE":"3761951","INCLINATION":"53.0549","REF_FRAME":"TEME","TLE_LINE2":"2 45045  53.0549 356.9284 0001732  92.3921 267.7266 15.06405535164889","ECCENTRICITY":"0.00017320","PERIOD":"95.592","ARG_OF_PERICENTER":"92.3921","MEAN_ANOMALY":"267.7266"},{"MEAN_MOTION_DDOT":"0.0000000000000","OBJECT_ID":"2020-006C","CENTER_NAME":"EARTH","EPOCH":"2023-01-26T02:10:32.395872","SITE":"AFETR","NORAD_CAT_ID":"45046","LAUNCH_DATE":"2020-01-29","FILE":"3761951","INCLINATION":"52.9864","TLE_LINE2":"2 45046  52.9864 322.1857 0003782 165.5962 194.5145 15.32333109165299","REF_FRAME":"TEME","ECCENTRICITY":"0.00037820","PERIOD":"93.974","ARG_OF_PERICENTER":"165.5962","MEAN_ANOMALY":"194.5145","ELEMENT_SET_NO":"999","PERIAPSIS":"466.266","DECAY_DATE":null,"RA_OF_ASC_NODE":"322.1857","BSTAR":"0.00394110000000","APOAPSIS":"471.445","TIME_SYSTEM":"UTC","TLE_LINE1":"1 45046U 20006C   23026.09065273  .00126537  00000-0  39411-2 0  9996","MEAN_ELEMENT_THEORY":"SGP4","MEAN_MOTION_DOT":"0.00126537","EPHEMERIS_TYPE":"0","RCS_SIZE":"LARGE","GP_ID":"223753614","REV_AT_EPOCH":"16529","SEMIMAJOR_AXIS":"6846.990","MEAN_MOTION":"15.32333109","OBJECT_NAME":"STARLINK-1129","OBJECT_TYPE":"PAYLOAD","CLASSIFICATION_TYPE":"U","COUNTRY_CODE":"US"},{"OBJECT_NAME":"STARLINK-1131","OBJECT_TYPE":"PAYLOAD","COUNTRY_CODE":"US","CLASSIFICATION_TYPE":"U","REV_AT_EPOCH":"16488","SEMIMAJOR_AXIS":"6925.327","MEAN_MOTION":"15.06406917","MEAN_ELEMENT_THEORY":"SGP4","MEAN_MOTION_DOT":"0.00002910","EPHEMERIS_TYPE":"0","RCS_SIZE":"LARGE","GP_ID":"223753842","DECAY_DATE":null,"PERIAPSIS":"545.984","RA_OF_ASC_NODE":"356.9148","BSTAR":"0.00021417000000","APOAPSIS":"548.401","TLE_LINE1":"1 45047U 20006D   23026.33025461  .00002910  00000-0  21417-3 0  9995","TIME_SYSTEM":"UTC","ELEMENT_SET_NO":"999","FILE":"3761951","INCLINATION":"53.0555","ECCENTRICITY":"0.00017450","TLE_LINE2":"2 45047  53.0555 356.9148 0001745  88.7899 271.3289 15.06406917164885","REF_FRAME":"TEME","PERIOD":"95.592","ARG_OF_PERICENTER":"88.7899","MEAN_ANOMALY":"271.3289","NORAD_CAT_ID":"45047","LAUNCH_DATE":"2020-01-29","CENTER_NAME":"EARTH","OBJECT_ID":"2020-006D","MEAN_MOTION_DDOT":"0.0000000000000","EPOCH":"2023-01-26T07:55:33.998304","SITE":"AFETR"},{"ELEMENT_SET_NO":"999","PERIOD":"95.592","ARG_OF_PERICENTER":"99.9637","MEAN_ANOMALY":"260.1522","FILE":"3761951","INCLINATION":"53.0562","ECCENTRICITY":"0.00015100","TLE_LINE2":"2 45048  53.0562 357.7646 0001510  99.9637 260.1522 15.06400419164854","REF_FRAME":"TEME","NORAD_CAT_ID":"45048","LAUNCH_DATE":"2020-01-29","SITE":"AFETR","MEAN_MOTION_DDOT":"0.0000000000000","OBJECT_ID":"2020-006E","CENTER_NAME":"EARTH","EPOCH":"2023-01-26T03:19:33.994560","COUNTRY_CODE":"US","CLASSIFICATION_TYPE":"U","OBJECT_NAME":"STARLINK-1134","OBJECT_TYPE":"PAYLOAD","MEAN_MOTION":"15.06400419","REV_AT_EPOCH":"16485","SEMIMAJOR_AXIS":"6925.347","EPHEMERIS_TYPE":"0","RCS_SIZE":"LARGE","GP_ID":"223753113","MEAN_ELEMENT_THEORY":"SGP4","MEAN_MOTION_DOT":"0.00001211","APOAPSIS":"548.258","TIME_SYSTEM":"UTC","TLE_LINE1":"1 45048U 20006E   23026.13858790  .00001211  00000-0  10017-3 0  9990","DECAY_DATE":null,"RA_OF_ASC_NODE":"357.7646","PERIAPSIS":"546.167","BSTAR":"0.00010017000000"},{"CENTER_NAME":"EARTH","OBJECT_ID":"2020-006F","MEAN_MOTION_DDOT":"0.0000000000000","EPOCH":"2023-01-26T07:16:10.338816","SITE":"AFETR","NORAD_CAT_ID":"45049","LAUNCH_DATE":"2020-01-29","FILE":"3761951","INCLINATION":"53.0588","TLE_LINE2":"2 45049  53.0588 346.2387 0000826  86.8949 273.2139 15.17513136165031","REF_FRAME":"TEME","ECCENTRICITY":"0.00008260","PERIOD":"94.892","ARG_OF_PERICENTER":"86.8949","MEAN_ANOMALY":"273.2139","ELEMENT_SET_NO":"999","DECAY_DATE":null,"RA_OF_ASC_NODE":"346.2387","PERIAPSIS":"512.792","BSTAR":"0.00240420000000","APOAPSIS":"513.931","TLE_LINE1":"1 45049U 20006F   23026.30289744  .00048812  00000-0  24042-2 0  9997","TIME_SYSTEM":"UTC","MEAN_ELEMENT_THEORY":"SGP4","MEAN_MOTION_DOT":"0.00048812","EPHEMERIS_TYPE":"0","GP_ID":"223753363","RCS_SIZE":"LARGE","REV_AT_EPOCH":"16503","SEMIMAJOR_AXIS":"6891.496","MEAN_MOTION":"15.17513136","OBJECT_NAME":"STARLINK-1135","OBJECT_TYPE":"PAYLOAD","CLASSIFICATION_TYPE":"U","COUNTRY_CODE":"US"},{"SITE":"AFETR","EPOCH":"2023-01-26T01:59:56.879808","MEAN_MOTION_DDOT":"0.0000000000000","OBJECT_ID":"2020-006G","CENTER_NAME":"EARTH","LAUNCH_DATE":"2020-01-29","NORAD_CAT_ID":"45050","MEAN_ANOMALY":"271.2125","PERIOD":"95.592","ARG_OF_PERICENTER":"88.9026","ECCENTRICITY":"0.00014150","TLE_LINE2":"2 45050  53.0554 358.0259 0001415  88.9026 271.2125 15.06404312164843","REF_FRAME":"TEME","FILE":"3761951","INCLINATION":"53.0554","ELEMENT_SET_NO":"999","TIME_SYSTEM":"UTC","TLE_LINE1":"1 45050U 20006G   23026.08329722  .00002027  00000-0  15493-3 0  9994","APOAPSIS":"548.180","BSTAR":"0.00015493000000","DECAY_DATE":null,"PERIAPSIS":"546.220","RA_OF_ASC_NODE":"358.0259","GP_ID":"223754114","RCS_SIZE":"LARGE","EPHEMERIS_TYPE":"0","MEAN_MOTION_DOT":"0.00002027","MEAN_ELEMENT_THEORY":"SGP4","MEAN_MOTION":"15.06404312","SEMIMAJOR_AXIS":"6925.335","REV_AT_EPOCH":"16484","CLASSIFICATION_TYPE":"U","COUNTRY_CODE":"US","OBJECT_TYPE":"PAYLOAD","OBJECT_NAME":"STARLINK-1140"},{"NORAD_CAT_ID":"45051","LAUNCH_DATE":"2020-01-29","SITE":"AFETR","MEAN_MOTION_DDOT":"0.0000000000000","OBJECT_ID":"2020-006H","CENTER_NAME":"EARTH","EPOCH":"2023-01-26T02:35:55.246848","ELEMENT_SET_NO":"999","PERIOD":"94.360","ARG_OF_PERICENTER":"130.4588","MEAN_ANOMALY":"229.6777","FILE":"3761951","INCLINATION":"53.0642","TLE_LINE2":"2 45051  53.0642 336.4611 0004213 130.4588 229.6777 15.26077049165159","REF_FRAME":"TEME","ECCENTRICITY":"0.00042130","EPHEMERIS_TYPE":"0","GP_ID":"223754341","RCS_SIZE":"LARGE","MEAN_ELEMENT_THEORY":"SGP4","MEAN_MOTION_DOT":"0.00085190","APOAPSIS":"490.448","TIME_SYSTEM":"UTC","TLE_LINE1":"1 45051U 20006H   23026.10827832  .00085190  00000-0  32374-2 0  9991","PERIAPSIS":"484.663","DECAY_DATE":null,"RA_OF_ASC_NODE":"336.4611","BSTAR":"0.00323740000000","COUNTRY_CODE":"US","CLASSIFICATION_TYPE":"U","OBJECT_NAME":"STARLINK-1141","OBJECT_TYPE":"PAYLOAD","MEAN_MOTION":"15.26077049","REV_AT_EPOCH":"16515","SEMIMAJOR_AXIS":"6865.690"}];
